EUTELSAT 7A             
1 28187U 04008A   25321.42230428  .00000118  00000+0  00000+0 0  9994
2 28187   5.2924  74.5343 0001658 215.6611 139.3794  1.00274048 79220
EUTELSAT 174A           
1 28924U 05052A   25322.12649009  .00000028  00000+0  00000+0 0  9990
2 28924   3.6844  79.1403 0006368 160.3630  37.5316  1.00274917 50212
EUTELSAT HOTBIRD 13B    
1 29270U 06032A   25322.13586669  .00000173  00000+0  00000+0 0  9998
2 29270   1.1150  84.5739 0003361 149.0673 265.7984  1.00272262 45191
EUTELSAT HOTBIRD 13C    
1 33459U 08065A   25322.08644986 -.00000211  00000+0  00000+0 0  9995
2 33459   2.4061  81.6842 0001035 113.6609 225.3168  1.00054554 45227
EUTELSAT 36B            
1 36101U 09065A   25322.10196330  .00000129  00000+0  00000+0 0  9998
2 36101   0.0559  33.1143 0006157 207.9780 263.5389  1.00274396 58594
EUTELSAT KA-SAT 9A      
1 37258U 10069A   25322.14697669  .00000079  00000+0  00000+0 0  9997
2 37258   0.0579 320.6880 0002364 223.0319 295.6871  1.00271711 41890
EUTELSAT 7 WEST A       
1 37816U 11051A   25322.09052323 -.00000043  00000+0  00000+0 0  9997
2 37816   0.0713  20.2299 0006069 197.8382 224.6161  1.00272540 51763
EUTELSAT 16A            
1 37836U 11057A   25322.14141904  .00000121  00000+0  00000+0 0  9991
2 37836   0.0617 345.9237 0005962 260.2321 238.2317  1.00272493  5216
